SWAS                    
1 25560U 98071A   26068.53487068  .00004636  00000+0  29986-3 0  9991
2 25560  69.8952 124.3662 0004099  14.3215 345.8065 15.08888192482231
STARLINK-4085           
1 53262U 22086W   26068.61026809 -.00000031  00000+0  16130-4 0  9999
2 53262  53.2184 194.4805 0001322  77.4054 282.7086 15.08838893201053
